[{"ORDINAL":"1","COMMENT":"GENERATED VIA SPACETRACK.ORG API","ORIGINATOR":"JSPOC","NORAD_CAT_ID":"40291","OBJECT_NAME":"CZ-2C DEB","OBJECT_TYPE":"DEBRIS","CLASSIFICATION_TYPE":"U","INTLDES":"14066F","EPOCH":"2014-12-03 13:49:48","EPOCH_MICROSECONDS":"971136","MEAN_MOTION":"14.21532426","ECCENTRICITY":"0.0180359","INCLINATION":"98.4421","RA_OF_ASC_NODE":"90.1547","ARG_OF_PERICENTER":"61.0592","MEAN_ANOMALY":"300.8544","EPHEMERIS_TYPE":"0","ELEMENT_SET_NO":"23","REV_AT_EPOCH":"529","BSTAR":"0.0016022","MEAN_MOTION_DOT":"4.099e-05","MEAN_MOTION_DDOT":"0","FILE":"1787620","TLE_LINE0":"0 CZ-2C DEB","TLE_LINE1":"1 40291U 14066F   14337.57626124  .00004099  00000-0  16022-2 0   237","TLE_LINE2":"2 40291 098.4421 090.1547 0180359 061.0592 300.8544 14.21532426  5291","OBJECT_ID":"2014-066F","OBJECT_NUMBER":"40291"},{"ORDINAL":"3","COMMENT":"GENERATED VIA SPACETRACK.ORG API","ORIGINATOR":"JSPOC","NORAD_CAT_ID":"40149","OBJECT_NAME":"ARIANE 5 DEB (SYLDA)","OBJECT_TYPE":"DEBRIS","CLASSIFICATION_TYPE":"U","INTLDES":"14054D","EPOCH":"2014-12-03 13:44:40","EPOCH_MICROSECONDS":"801343","MEAN_MOTION":"2.3135489","ECCENTRICITY":"0.7243495","INCLINATION":"6.0067","RA_OF_ASC_NODE":"114.5217","ARG_OF_PERICENTER":"246.3296","MEAN_ANOMALY":"26.1403","EPHEMERIS_TYPE":"0","ELEMENT_SET_NO":"76","REV_AT_EPOCH":"190","BSTAR":"0.0066957","MEAN_MOTION_DOT":"0.00014323","MEAN_MOTION_DDOT":"0","FILE":"1787676","TLE_LINE0":"0 ARIANE 5 DEB (SYLDA)","TLE_LINE1":"1 40149U 14054D   14337.57269446  .00014323  00000-0  66957-2 0   767","TLE_LINE2":"2 40149 006.0067 114.5217 7243495 246.3296 026.1403 02.31354890  1907","OBJECT_ID":"2014-054D","OBJECT_NUMBER":"40149"},{"ORDINAL":"1","COMMENT":"GENERATED VIA SPACETRACK.ORG API","ORIGINATOR":"JSPOC","NORAD_CAT_ID":"39524","OBJECT_NAME":"BREEZE-M DEB (TANK)","OBJECT_TYPE":"DEBRIS","CLASSIFICATION_TYPE":"U","INTLDES":"14007C","EPOCH":"2014-12-03 13:42:55","EPOCH_MICROSECONDS":"662048","MEAN_MOTION":"3.71446112","ECCENTRICITY":"0.6179392","INCLINATION":"49.3948","RA_OF_ASC_NODE":"329.4075","ARG_OF_PERICENTER":"117.4578","MEAN_ANOMALY":"317.2954","EPHEMERIS_TYPE":"0","ELEMENT_SET_NO":"178","REV_AT_EPOCH":"1080","BSTAR":"0.0004616","MEAN_MOTION_DOT":"4e-06","MEAN_MOTION_DDOT":"0","FILE":"1787987","TLE_LINE0":"0 BREEZE-M DEB (TANK)","TLE_LINE1":"1 39524U 14007C   14337.57147757  .00000400  00000-0  46160-3 0  1789","TLE_LINE2":"2 39524 049.3948 329.4075 6179392 117.4578 317.2954 03.71446112 10801","OBJECT_ID":"2014-007C","OBJECT_NUMBER":"39524"},{"ORDINAL":"5","COMMENT":"GENERATED VIA SPACETRACK.ORG API","ORIGINATOR":"JSPOC","NORAD_CAT_ID":"40307","OBJECT_NAME":"CZ-2C DEB","OBJECT_TYPE":"DEBRIS","CLASSIFICATION_TYPE":"U","INTLDES":"14071C","EPOCH":"2014-12-03 13:39:30","EPOCH_MICROSECONDS":"47327","MEAN_MOTION":"15.67125133","ECCENTRICITY":"0.00877","INCLINATION":"97.1038","RA_OF_ASC_NODE":"282.4911","ARG_OF_PERICENTER":"225.956","MEAN_ANOMALY":"133.7563","EPHEMERIS_TYPE":"0","ELEMENT_SET_NO":"48","REV_AT_EPOCH":"291","BSTAR":"0.0080494","MEAN_MOTION_DOT":"0.01186872","MEAN_MOTION_DDOT":"0","FILE":"1787660","TLE_LINE0":"0 CZ-2C DEB","TLE_LINE1":"1 40307U 14071C   14337.56909777  .01186872  00000-0  80494-2 0   480","TLE_LINE2":"2 40307 097.1038 282.4911 0087700 225.9560 133.7563 15.67125133  2916","OBJECT_ID":"2014-071C","OBJECT_NUMBER":"40307"},{"ORDINAL":"2","COMMENT":"GENERATED VIA SPACETRACK.ORG API","ORIGINATOR":"JSPOC","NORAD_CAT_ID":"40274","OBJECT_NAME":"ARIANE 5 DEB (SYLDA)","OBJECT_TYPE":"DEBRIS","CLASSIFICATION_TYPE":"U","INTLDES":"14062D","EPOCH":"2014-12-03 12:28:59","EPOCH_MICROSECONDS":"783231","MEAN_MOTION":"2.3040359","ECCENTRICITY":"0.7257541","INCLINATION":"5.9107","RA_OF_ASC_NODE":"158.4566","ARG_OF_PERICENTER":"217.6007","MEAN_ANOMALY":"57.8051","EPHEMERIS_TYPE":"0","ELEMENT_SET_NO":"30","REV_AT_EPOCH":"108","BSTAR":"0.0084437","MEAN_MOTION_DOT":"0.00023664","MEAN_MOTION_DDOT":"0","FILE":"1787606","TLE_LINE0":"0 ARIANE 5 DEB (SYLDA)","TLE_LINE1":"1 40274U 14062D   14337.52013638  .00023664  00000-0  84437-2 0   301","TLE_LINE2":"2 40274 005.9107 158.4566 7257541 217.6007 057.8051 02.30403590  1081","OBJECT_ID":"2014-062D","OBJECT_NUMBER":"40274"},{"ORDINAL":"1","COMMENT":"GENERATED VIA SPACETRACK.ORG API","ORIGINATOR":"JSPOC","NORAD_CAT_ID":"40274","OBJECT_NAME":"ARIANE 5 DEB (SYLDA)","OBJECT_TYPE":"DEBRIS","CLASSIFICATION_TYPE":"U","INTLDES":"14062D","EPOCH":"2014-12-03 12:28:55","EPOCH_MICROSECONDS":"778592","MEAN_MOTION":"2.30392879","ECCENTRICITY":"0.7255336","INCLINATION":"5.937","RA_OF_ASC_NODE":"158.5768","ARG_OF_PERICENTER":"217.4747","MEAN_ANOMALY":"57.7943","EPHEMERIS_TYPE":"0","ELEMENT_SET_NO":"31","REV_AT_EPOCH":"108","BSTAR":"0.0083332","MEAN_MOTION_DOT":"0.00021062","MEAN_MOTION_DDOT":"0","FILE":"1787793","TLE_LINE0":"0 ARIANE 5 DEB (SYLDA)","TLE_LINE1":"1 40274U 14062D   14337.52009003  .00021062  00000-0  83332-2 0   316","TLE_LINE2":"2 40274 005.9370 158.5768 7255336 217.4747 057.7943 02.30392879  1083","OBJECT_ID":"2014-062D","OBJECT_NUMBER":"40274"},{"ORDINAL":"2","COMMENT":"GENERATED VIA SPACETRACK.ORG API","ORIGINATOR":"JSPOC","NORAD_CAT_ID":"40260","OBJECT_NAME":"BREEZE-M DEB (TANK)","OBJECT_TYPE":"DEBRIS","CLASSIFICATION_TYPE":"U","INTLDES":"14058C","EPOCH":"2014-12-03 12:11:38","EPOCH_MICROSECONDS":"46335","MEAN_MOTION":"2.27047674","ECCENTRICITY":"0.7199642","INCLINATION":"46.1266","RA_OF_ASC_NODE":"303.2385","ARG_OF_PERICENTER":"17.938","MEAN_ANOMALY":"357.8843","EPHEMERIS_TYPE":"0","ELEMENT_SET_NO":"39","REV_AT_EPOCH":"148","BSTAR":"0.0011834","MEAN_MOTION_DOT":"1.81e-06","MEAN_MOTION_DDOT":"0","FILE":"1787776","TLE_LINE0":"0 BREEZE-M DEB (TANK)","TLE_LINE1":"1 40260U 14058C   14337.50807924  .00000181  00000-0  11834-2 0   397","TLE_LINE2":"2 40260 046.1266 303.2385 7199642 017.9380 357.8843 02.27047674  1489","OBJECT_ID":"2014-058C","OBJECT_NUMBER":"40260"},{"ORDINAL":"3","COMMENT":"GENERATED VIA SPACETRACK.ORG API","ORIGINATOR":"JSPOC","NORAD_CAT_ID":"39511","OBJECT_NAME":"ARIANE 5 DEB (SYLDA)","OBJECT_TYPE":"DEBRIS","CLASSIFICATION_TYPE":"U","INTLDES":"14006D","EPOCH":"2014-12-03 10:08:20","EPOCH_MICROSECONDS":"647679","MEAN_MOTION":"2.52464672","ECCENTRICITY":"0.7098857","INCLINATION":"5.6585","RA_OF_ASC_NODE":"153.4441","ARG_OF_PERICENTER":"78.0785","MEAN_ANOMALY":"347.648","EPHEMERIS_TYPE":"0","ELEMENT_SET_NO":"315","REV_AT_EPOCH":"703","BSTAR":"0.018475","MEAN_MOTION_DOT":"0.001144","MEAN_MOTION_DDOT":"0","FILE":"1787805","TLE_LINE0":"0 ARIANE 5 DEB (SYLDA)","TLE_LINE1":"1 39511U 14006D   14337.42246120  .00114400  00000-0  18475-1 0  3157","TLE_LINE2":"2 39511 005.6585 153.4441 7098857 078.0785 347.6480 02.52464672  7031","OBJECT_ID":"2014-006D","OBJECT_NUMBER":"39511"},{"ORDINAL":"5","COMMENT":"GENERATED VIA SPACETRACK.ORG API","ORIGINATOR":"JSPOC","NORAD_CAT_ID":"40308","OBJECT_NAME":"CZ-2C DEB","OBJECT_TYPE":"DEBRIS","CLASSIFICATION_TYPE":"U","INTLDES":"14071D","EPOCH":"2014-12-03 09:34:04","EPOCH_MICROSECONDS":"690560","MEAN_MOTION":"15.60869166","ECCENTRICITY":"0.0097021","INCLINATION":"97.5109","RA_OF_ASC_NODE":"283.2476","ARG_OF_PERICENTER":"230.0935","MEAN_ANOMALY":"129.1984","EPHEMERIS_TYPE":"0","ELEMENT_SET_NO":"38","REV_AT_EPOCH":"288","BSTAR":"0.0055171","MEAN_MOTION_DOT":"0.00616002","MEAN_MOTION_DDOT":"0","FILE":"1787631","TLE_LINE0":"0 CZ-2C DEB","TLE_LINE1":"1 40308U 14071D   14337.39866540  .00616002  00000-0  55171-2 0   387","TLE_LINE2":"2 40308 097.5109 283.2476 0097021 230.0935 129.1984 15.60869166  2881","OBJECT_ID":"2014-071D","OBJECT_NUMBER":"40308"},{"ORDINAL":"3","COMMENT":"GENERATED VIA SPACETRACK.ORG API","ORIGINATOR":"JSPOC","NORAD_CAT_ID":"39615","OBJECT_NAME":"BREEZE-M DEB (TANK)","OBJECT_TYPE":"DEBRIS","CLASSIFICATION_TYPE":"U","INTLDES":"14010D","EPOCH":"2014-12-03 08:42:27","EPOCH_MICROSECONDS":"463104","MEAN_MOTION":"2.28269971","ECCENTRICITY":"0.7285928","INCLINATION":"48.4261","RA_OF_ASC_NODE":"98.6739","ARG_OF_PERICENTER":"63.8253","MEAN_ANOMALY":"351.5785","EPHEMERIS_TYPE":"0","ELEMENT_SET_NO":"161","REV_AT_EPOCH":"590","BSTAR":"0.0011367","MEAN_MOTION_DOT":"5.759e-05","MEAN_MOTION_DDOT":"0","FILE":"1787826","TLE_LINE0":"0 BREEZE-M DEB (TANK)","TLE_LINE1":"1 39615U 14010D   14337.36281786  .00005759  00000-0  11367-2 0  1616","TLE_LINE2":"2 39615 048.4261 098.6739 7285928 063.8253 351.5785 02.28269971  5905","OBJECT_ID":"2014-010D","OBJECT_NUMBER":"39615"},{"ORDINAL":"1","COMMENT":"GENERATED VIA SPACETRACK.ORG API","ORIGINATOR":"JSPOC","NORAD_CAT_ID":"40078","OBJECT_NAME":"FREGAT DEB","OBJECT_TYPE":"DEBRIS","CLASSIFICATION_TYPE":"U","INTLDES":"14037K","EPOCH":"2014-12-03 07:47:40","EPOCH_MICROSECONDS":"113311","MEAN_MOTION":"14.51540584","ECCENTRICITY":"0.0139318","INCLINATION":"98.3634","RA_OF_ASC_NODE":"28.3608","ARG_OF_PERICENTER":"130.3349","MEAN_ANOMALY":"231.0115","EPHEMERIS_TYPE":"0","ELEMENT_SET_NO":"152","REV_AT_EPOCH":"2141","BSTAR":"0.00022174","MEAN_MOTION_DOT":"9.56e-06","MEAN_MOTION_DDOT":"0","FILE":"1787621","TLE_LINE0":"0 FREGAT DEB","TLE_LINE1":"1 40078U 14037K   14337.32476983  .00000956  00000-0  22174-3 0  1524","TLE_LINE2":"2 40078 098.3634 028.3608 0139318 130.3349 231.0115 14.51540584 21417","OBJECT_ID":"2014-037K","OBJECT_NUMBER":"40078"},{"ORDINAL":"1","COMMENT":"GENERATED VIA SPACETRACK.ORG API","ORIGINATOR":"JSPOC","NORAD_CAT_ID":"40279","OBJECT_NAME":"BREEZE-M DEB (TANK)","OBJECT_TYPE":"DEBRIS","CLASSIFICATION_TYPE":"U","INTLDES":"14064C","EPOCH":"2014-12-03 06:41:52","EPOCH_MICROSECONDS":"153440","MEAN_MOTION":"2.14213271","ECCENTRICITY":"0.7360871","INCLINATION":"49.3873","RA_OF_ASC_NODE":"255.7667","ARG_OF_PERICENTER":"8.8811","MEAN_ANOMALY":"358.9951","EPHEMERIS_TYPE":"0","ELEMENT_SET_NO":"33","REV_AT_EPOCH":"91","BSTAR":"0.0025886","MEAN_MOTION_DOT":"1.947e-05","MEAN_MOTION_DDOT":"0","FILE":"1788336","TLE_LINE0":"0 BREEZE-M DEB (TANK)","TLE_LINE1":"1 40279U 14064C   14337.27907585  .00001947  00000-0  25886-2 0   339","TLE_LINE2":"2 40279 049.3873 255.7667 7360871 008.8811 358.9951 02.14213271   917","OBJECT_ID":"2014-064C","OBJECT_NUMBER":"40279"}]